satname,norad_id,inclination_deg,eccentricity,mean_motion_rev_per_day,perigee_km,apogee_km,l1,l2
STARLINK-1152,45096,53.0431,0.0005135,15.28352546,477.2147581811205,484.25882156331954,1 45096U 20006BE  25349.12119748  .00016045  00000+0  58458-3 0  9996,2 45096  53.0431 242.2311 0005135  51.8530 308.2930 15.28352546324615
STARLINK-1184,45098,53.0544,0.0001969,15.06733388,544.8265601660951,547.553360123,1 45098U 20006BG  25349.18787494  .00013908  00000+0  94223-3 0  9998,2 45098  53.0544 265.9587 0001969 106.6363 253.4843 15.06733388324283
STARLINK-1193,45100,53.0546,0.0001549,15.06390422,546.1681722455651,548.3136543231003,1 45100U 20006BJ  25349.18452886 -.00000732  00000+0 -30222-4 0  9999,2 45100  53.0546 265.9764 0001549  94.6211 265.4955 15.06390422324283
STARLINK-1143,45179,53.0528,0.0001608,15.4667575,425.3644796251692,427.5528375889762,1 45179U 20012B   25349.32276420  .00069505  00000+0  13661-2 0  9993,2 45179  53.0528  17.2693 0001608 193.7993 166.2970 15.46675750322807
STARLINK-1202,45183,53.0563,0.0001126,15.06389946,546.4625744543127,548.0221698889263,1 45183U 20012F   25349.24719622 -.00000752  00000+0 -31632-4 0  9996,2 45183  53.0563  65.6977 0001126  94.5729 265.5389 15.06389946322119
STARLINK-1216,45185,53.0549,0.0001271,15.06393088,546.3525278095221,548.112956798017,1 45185U 20012H   25349.23982036 -.00002047  00000+0 -11860-3 0  9997,2 45185  53.0549  65.7272 0001271  95.5101 264.6033 15.06393088322051
STARLINK-1225,45187,53.0551,0.0001311,15.06387634,546.3415400418444,548.1573763711858,1 45187U 20012K   25349.19190726 -.00001627  00000+0 -90422-4 0  9996,2 45187  53.0551  65.9429 0001311  85.6182 274.4957 15.06387634322094
STARLINK-1230,45189,53.056,0.0001163,15.06382458,546.4598978734357,548.0707464535699,1 45189U 20012M   25349.19559116 -.00002089  00000+0 -12148-3 0  9991,2 45189  53.0560  65.9307 0001163  93.2993 266.8130 15.06382458319320
STARLINK-1234,45190,53.0519,0.0007812,15.43532553,430.3703261828068,441.01625462853735,1 45190U 20012N   25349.33417277  .00067787  00000+0  14821-2 0  9993,2 45190  53.0519  11.7925 0007812   6.4008 353.7096 15.43532553322775
STARLINK-1269,45197,53.0563,0.0001351,15.06383313,546.3270801623294,548.1983231617196,1 45197U 20012V   25349.20665101  .00000276  00000+0  37447-4 0  9998,2 45197  53.0563  65.8788 0001351  85.4149 274.6994 15.06383313322071
STARLINK-1154,45198,53.0569,0.0001409,15.0640149,546.2312103382656,548.1827722750168,1 45198U 20012W   25349.33013129 -.00001248  00000+0 -64872-4 0  9994,2 45198  53.0569  45.3248 0001409  84.9231 275.1919 15.06401490322342
STARLINK-1199,45201,53.057,0.000124,15.06390333,546.3824391643457,548.0999329544893,1 45201U 20012Z   25349.34117491  .00000348  00000+0  42283-4 0  9997,2 45201  53.0570  45.2763 0001240  99.4787 260.6343 15.06390333322400
STARLINK-1209,45206,53.0529,0.0008143,15.36693596,450.32971796516995,461.45962194285767,1 45206U 20012AE  25349.31806453  .00051638  00000+0  14196-2 0  9990,2 45206  53.0529  14.5088 0008143   8.4911 351.6228 15.36693596321880
STARLINK-1210,45207,53.0215,0.000301,15.68716862,360.54127759751555,364.5991833502612,1 45207U 20012AF  25349.33335648  .00004577  00000+0  44346-4 0  9998,2 45207  53.0215 327.1030 0003010 143.6099 156.8361 15.68716862  5744
STARLINK-1231,45212,53.0505,0.0002832,15.15262947,518.2267874001891,522.1339943703861,1 45212U 20012AL  25349.33556581  .00013238  00000+0  71026-3 0  9993,2 45212  53.0505  41.3101 0002832 169.5516 190.5537 15.15262947322416
STARLINK-1271,45217,53.0555,0.0001326,15.06404897,546.2782501505853,548.11484860788,1 45217U 20012AR  25349.32642981 -.00000646  00000+0 -24455-4 0  9993,2 45217  53.0555  45.3396 0001326  92.6084 267.5057 15.06404897322402
STARLINK-1191,45222,53.0554,0.0001262,15.06403718,546.3261852772566,548.0741403771544,1 45222U 20012AW  25349.33564225  .00000068  00000+0  23449-4 0  9992,2 45222  53.0554  25.2984 0001262  94.7099 265.4034 15.06403718322688
STARLINK-1212,45223,53.0559,0.0001345,15.0639564,546.2934595642118,548.1563819208914,1 45223U 20012AX  25349.35416943  .00000729  00000+0  67845-4 0  9990,2 45223  53.0559  25.8731 0001345  89.7286 270.3857 15.06395640322686
STARLINK-1215,45225,53.0548,0.0001381,15.06407831,546.2311698337771,548.1439444764646,1 45225U 20012AZ  25349.37618802  .00003062  00000+0  22434-3 0  9999,2 45225  53.0548  25.1163 0001381  85.2714 274.8432 15.06407831322645
STARLINK-1221,45227,53.068,0.0005554,15.38651824,446.3026331629799,453.8874333054973,1 45227U 20012BB  25349.29734190  .00012954  00000+0  34380-3 0  9994,2 45227  53.0680 308.4927 0005554  95.4495 264.7142 15.38651824323706
STARLINK-1222,45228,53.056,0.000153,15.25207149,489.11262559303213,491.2143255385554,1 45228U 20012BC  25349.33335648  .01680213  00000+0  59644-1 0  9993,2 45228  53.0560  24.3641 0001530  62.0212  15.2240 15.25207149  5694
STARLINK-1226,45229,53.0577,0.000151,15.06373902,546.2458059938836,548.3372854146855,1 45229U 20012BD  25349.37251830 -.00000371  00000+0 -59925-5 0  9996,2 45229  53.0577  25.1313 0001510 100.0972 260.0187 15.06373902322582
STARLINK-1227,45230,53.0556,0.0001279,15.06403435,546.3152794439538,548.0867809120737,1 45230U 20012BE  25349.36882819  .00000462  00000+0  49881-4 0  9992,2 45230  53.0556  25.1493 0001279  88.1689 271.9447 15.06403435322702
STARLINK-1246,45235,53.0554,0.000145,15.06400118,546.2070207968354,548.2153717737583,1 45235U 20012BK  25348.91915132  .00007618  00000+0  52979-3 0  9993,2 45235  53.0554  67.1671 0001450  88.4877 271.6279 15.06400118322088
STARLINK-1270,45237,53.0546,0.0001091,15.09633945,536.5632042493262,538.0721564605801,1 45237U 20012BM  25349.33335648  .00010817  00000+0  68174-3 0  9999,2 45237  53.0546  25.2981 0001091  36.1401  36.8918 15.09633945  5644
STARLINK-1279,45360,53.049,0.0006653,15.41498256,437.14949803288164,446.22395548370696,1 45360U 20019A   25349.33335648  .00132363  00000+0  30638-2 0  9997,2 45360  53.0490 142.8242 0006653 172.8143  24.5795 15.41498256  5877
STARLINK-1301,45361,53.0487,0.0007141,15.4455784,427.8139790225123,437.54118440811817,1 45361U 20019B   25349.33335648  .00141719  00000+0  29554-2 0  9998,2 45361  53.0487 151.6885 0007141 167.0930 308.8669 15.44557840  5896
STARLINK-1306,45362,53.036,0.0001336,15.89661607,302.3382409185715,304.1235024138805,1 45362U 20019C   25349.33335648  .00315918  00000+0  10130-2 0  9993,2 45362  53.0360 129.3602 0001336  37.3439 238.8005 15.89661607  5699
STARLINK-1262,45366,53.0536,0.0001399,15.06391277,546.2694328024818,548.2071528094084,1 45366U 20019G   25348.83435924 -.00000194  00000+0  58489-5 0  9999,2 45366  53.0536 187.5449 0001399  95.8317 264.2832 15.06391277316942
STARLINK-1273,45367,53.0559,0.0001417,15.06382392,546.2841949102149,548.2468539856427,1 45367U 20019H   25349.25457116 -.00001317  00000+0 -69581-4 0  9997,2 45367  53.0559 185.6606 0001417  95.0019 265.1132 15.06382392317003
STARLINK-1276,45368,53.0536,0.0001149,15.06395177,546.4306155303366,548.0220640258176,1 45368U 20019J   25349.29139701  .00003118  00000+0  22814-3 0  9995,2 45368  53.0536 185.4986 0001149  84.7824 275.3296 15.06395177317019
STARLINK-1277,45369,53.0529,0.0001491,15.06394034,546.1972707330824,548.2624151256441,1 45369U 20019K   25349.28411743  .00000535  00000+0  54843-4 0  9992,2 45369  53.0529 186.1551 0001491  95.1088 265.0072 15.06394034317004
STARLINK-1281,45370,53.0541,0.0001467,15.06401495,546.1910280211096,548.2229239436629,1 45370U 20019L   25349.28035149 -.00000374  00000+0 -62089-5 0  9991,2 45370  53.0541 185.5484 0001467  89.4618 270.6539 15.06401495317017
STARLINK-1300,45374,53.0541,0.0001681,15.06390773,546.0756816623089,548.4039933550794,1 45374U 20019Q   25348.83805005  .00001432  00000+0  11503-3 0  9998,2 45374  53.0541 187.5302 0001681  94.8896 265.2285 15.06390773316943
STARLINK-1302,45375,53.053,0.0001542,15.06393047,546.1649759301881,548.300759997469,1 45375U 20019R   25349.25086846  .00000206  00000+0  32751-4 0  9997,2 45375  53.0530 185.6785 0001542  92.5254 267.5912 15.06393047317002
STARLINK-1304,45376,53.0534,0.0001357,15.06392883,546.2935978448295,548.1731433634104,1 45376U 20019S   25348.87122437  .00002195  00000+0  16624-3 0  9991,2 45376  53.0534 187.3805 0001357  91.4077 268.7068 15.06392883316948
STARLINK-1305,45377,53.0517,0.000928,15.37620373,446.8088896802037,459.4877552386897,1 45377U 20019T   25349.24030256  .00048051  00000+0  12830-2 0  9996,2 45377  53.0517 174.6031 0009280 144.2365 215.9260 15.37620373317165
STARLINK-1319,45379,53.0527,0.0007853,15.42600609,433.08428856435785,443.7904002296673,1 45379U 20019V   25348.92971156  .00072627  00000+0  16367-2 0  9990,2 45379  53.0527 176.9881 0007853 150.5252 209.6197 15.42600609317104
STARLINK-1266,45383,53.0544,0.000143,15.06411619,546.1856278541009,548.1662673571163,1 45383U 20019Z   25349.22321912 -.00002779  00000+0 -16770-3 0  9990,2 45383  53.0544 165.8050 0001430  88.9424 271.1729 15.06411619317277
STARLINK-1267,45384,53.0539,7.13e-05,15.12060253,529.4252926599156,530.4103812796675,1 45384U 20019AA  25349.33335648  .00080125  00000+0  45713-2 0  9991,2 45384  53.0539 165.8776 0000713  70.7955 293.2834 15.12060253  5792
STARLINK-1272,45386,53.0502,0.0007939,15.40934408,437.93468821561055,448.7658456980844,1 45386U 20019AC  25349.02963312  .00072960  00000+0  17378-2 0  9998,2 45386  53.0502 154.8527 0007939 167.3306 192.7899 15.40934408317418
STARLINK-1274,45387,53.0324,0.0002559,15.34669079,460.15323118053857,463.6539639583734,1 45387U 20019AD  25349.33335648  .00110593  00000+0  32085-2 0  9995,2 45387  53.0324 142.4993 0002559 115.2644 148.9494 15.34669079  5860
STARLINK-1280,45388,53.051,0.0009834,15.46337533,420.7582141728017,434.1434443153594,1 45388U 20019AE  25349.18926057  .00015855  00000+0  32367-3 0  9998,2 45388  53.0510 171.6755 0009834 141.0510 219.1206 15.46337533317183
